IRIDIUM 171             
1 43929U 19002H   24062.84610056  .00000108  00000+0  31474-4 0  9994
2 43929  86.4031 343.3215 0002298  84.1195 276.0263 14.34217120269087
IRIDIUM 170             
1 43930U 19002J   24062.82249696  .00001477  00000+0  23015-3 0  9993
2 43930  86.6149 343.1681 0002683  88.1896 271.9628 14.72277279276200
IRIDIUM 167             
1 43931U 19002K   24062.83975738 -.00000038  00000+0 -20641-4 0  9995
2 43931  86.4020 343.1253 0002164  84.3209 275.8234 14.34217106269087
IRIDIUM 181             
1 56726U 23068S   24062.91410837  .00000561  00000+0  15991-3 0  9991
2 56726  86.8646  31.6276 0002913  93.0149 267.1386 14.43600500 41801
IRIDIUM 177             
1 56727U 23068T   24062.88785263  .00001917  00000+0  24891-3 0  9991
2 56727  86.2023   5.8167 0002540  90.6087 269.5425 14.80208853 42657
IRIDIUM 174             
1 56728U 23068U   24062.88242914  .00002036  00000+0  26454-3 0  9993
2 56728  86.2029   5.9145 0002429  90.6318 269.5181 14.80208565 42653
IRIDIUM 178             
1 56729U 23068V   24062.87701762  .00001991  00000+0  25872-3 0  9996
2 56729  86.5816  18.3306 0002405  88.9646 271.1851 14.80211502 42654
IRIDIUM 179             
1 56730U 23068W   24062.93919778  .00002009  00000+0  26116-3 0  9996
2 56730  86.6823  21.0975 0002460  91.4605 268.6898 14.80210948 42669
